GLOBALSTAR M057         
1 25943U 99058A   24211.19380898 -.00000046  00000+0  42243-3 0  9998
2 25943  51.9958 184.8310 0002302  63.7919 296.3167 12.24790569127356
GLOBALSTAR M059         
1 25944U 99058B   24211.82252618 -.00000117  00000+0 -38396-3 0  9991
2 25944  52.0044 359.2626 0000993  78.4766  22.0571 11.99965996124090
GLOBALSTAR M056         
1 25945U 99058C   24211.52606019 -.00000068  00000+0  22295-3 0  9992
2 25945  51.9984  10.3079 0000416 164.6852 268.0545 12.04774081123736
GLOBALSTAR M031         
1 25946U 99058D   24211.56086181 -.00000163  00000+0 -73212-3 0  9991
2 25946  51.9965 281.8568 0001460 223.9049 283.5624 12.16012048125532
GLOBALSTAR M039         
1 25961U 99062A   24211.58152524 -.00000059  00000+0  24951-3 0  9999
2 25961  51.9828 171.2879 0002998 354.9099   5.1737 12.62298177139472
GLOBALSTAR M034         
1 25962U 99062B   24211.50710573  .00000000  00000+0  12939-2 0  9993
2 25962  51.9867 130.1581 0013600 150.2786  19.9899 11.79430029100316
GLOBALSTAR M029         
1 25963U 99062C   24211.82616837 -.00000059  00000+0  34118-3 0  9996
2 25963  51.9777 247.5681 0002787 202.3577 328.8210 11.99881096130477
GLOBALSTAR M061         
1 25964U 99062D   24211.59135156 -.00000049  00000+0  52110-3 0  9992
2 25964  51.9812 309.7006 0006414  83.1466 289.3101 11.76762978 83203
